{"type": "FeatureCollection", "features": [ {"type": "Feature", "properties": {"norad_id": 34376, "name": "IRIDIUM 33 DEB", "group": "iridium-33-debris", "lat": -86.16653517163388, "lon": -104.91022465930243, "alt_km": 709.1135666971068, "timestamp": "2025-12-27T03:58:44.532357+00:00", "meta": {"OBJECT_NAME": "IRIDIUM 33 DEB", "OBJECT_ID": "1997-051FU", "EPOCH": "2025-12-26T18:32:45.117888", "MEAN_MOTION": 14.62763558, "ECCENTRICITY": 0.0028652, "INCLINATION": 86.2986, "RA_OF_ASC_NODE": 0.2297, "ARG_OF_PERICENTER": 120.9152, "MEAN_ANOMALY": 239.4882, "EPHEMERIS_TYPE": 0, "CLASSIFICATION_TYPE": "U", "NORAD_CAT_ID": 34376, "ELEMENT_SET_NO": 999, "REV_AT_EPOCH": 88212, "BSTAR": 0.0016299, "MEAN_MOTION_DOT": 8.382e-05, "MEAN_MOTION_DDOT": 0}, "tle": {"line1": "1 34376U 97051FU  25360.77274442  .00008382  00000+0  16299-2 0  9997", "line2": "2 34376  86.2986   0.2297 0028652 120.9152 239.4882 14.62763558882121"}}, "geometry": {"type": "Point", "coordinates": [-104.91022465930243, -86.16653517163388]}}, {"type": "Feature", "properties": {"norad_id": 34486, "name": "IRIDIUM 33 DEB", "group": "iridium-33-debris", "lat": 59.770403586367124, "lon": 11.575898707382159, "alt_km": 562.647919200147, "timestamp": "2025-12-27T03:58:44.532367+00:00", "meta": {"OBJECT_NAME": "IRIDIUM 33 DEB", "OBJECT_ID": "1997-051GB", "EPOCH": "2025-12-26T00:39:56.499264", "MEAN_MOTION": 14.96400313, "ECCENTRICITY": 0.00139183, "INCLINATION": 86.3935, "RA_OF_ASC_NODE": 5.8877, "ARG_OF_PERICENTER": 74.4824, "MEAN_ANOMALY": 338.8012, "EPHEMERIS_TYPE": 0, "CLASSIFICATION_TYPE": "U", "NORAD_CAT_ID": 34486, "ELEMENT_SET_NO": 999, "REV_AT_EPOCH": 89185, "BSTAR": 0.0021412617, "MEAN_MOTION_DOT": 0.00024383, "MEAN_MOTION_DDOT": 0}, "tle": {"line1": "1 34486U 97051GB  25360.02773726  .00024383  00000+0  21413-2 0  9999", "line2": "2 34486  86.3935   5.8877 0013918  74.4824 338.8012 14.96400313891854"}}, "geometry": {"type": "Point", "coordinates": [11.575898707382159, 59.770403586367124]}}, {"type": "Feature", "properties": {"norad_id": 34487, "name": "IRIDIUM 33 DEB", "group": "iridium-33-debris", "lat": -33.02523006976942, "lon": -171.451641499286, "alt_km": 769.1392247096737, "timestamp": "2025-12-27T03:58:44.532376+00:00", "meta": {"OBJECT_NAME": "IRIDIUM 33 DEB", "OBJECT_ID": "1997-051GC", "EPOCH": "2025-12-26T00:37:21.163296", "MEAN_MOTION": 14.43232747, "ECCENTRICITY": 0.00332617, "INCLINATION": 86.3429, "RA_OF_ASC_NODE": 6.6563, "ARG_OF_PERICENTER": 87.1121, "MEAN_ANOMALY": 327.0907, "EPHEMERIS_TYPE": 0, "CLASSIFICATION_TYPE": "U", "NORAD_CAT_ID": 34487, "ELEMENT_SET_NO": 999, "REV_AT_EPOCH": 88440, "BSTAR": 0.00018559814, "MEAN_MOTION_DOT": 6.49e-06, "MEAN_MOTION_DDOT": 0}, "tle": {"line1": "1 34487U 97051GC  25360.02593939  .00000649  00000+0  18560-3 0  9995", "line2": "2 34487  86.3429   6.6563 0033261  87.1121 327.0907 14.43232747884400"}}, "geometry": {"type": "Point", "coordinates": [-171.451641499286, -33.02523006976942]}}, {"type": "Feature", "properties": {"norad_id": 34488, "name": "IRIDIUM 33 DEB", "group": "iridium-33-debris", "lat": 63.201997132999686, "lon": -54.039556787564386, "alt_km": 455.6024899454551, "timestamp": "2025-12-27T03:58:44.532386+00:00", "meta": {"OBJECT_NAME": "IRIDIUM 33 DEB", "OBJECT_ID": "1997-051GD", "EPOCH": "2025-12-25T20:22:16.973184", "MEAN_MOTION": 15.32823177, "ECCENTRICITY": 0.00085439, "INCLINATION": 86.325, "RA_OF_ASC_NODE": 299.3053, "ARG_OF_PERICENTER": 30.257, "MEAN_ANOMALY": 329.9171, "EPHEMERIS_TYPE": 0, "CLASSIFICATION_TYPE": "U", "NORAD_CAT_ID": 34488, "ELEMENT_SET_NO": 999, "REV_AT_EPOCH": 89440, "BSTAR": 0.0046585997, "MEAN_MOTION_DOT": 0.00150449, "MEAN_MOTION_DDOT": 0}, "tle": {"line1": "1 34488U 97051GD  25359.84880756  .00150449  00000+0  46586-2 0  9992", "line2": "2 34488  86.3250 299.3053 0008543  30.2570 329.9171 15.32823177894407"}}, "geometry": {"type": "Point", "coordinates": [-54.039556787564386, 63.201997132999686]}}, {"type": "Feature", "properties": {"norad_id": 34492, "name": "IRIDIUM 33 DEB", "group": "iridium-33-debris", "lat": 60.17801418148766, "lon": 142.61983927831199, "alt_km": 754.6184790956731, "timestamp": "2025-12-27T03:58:44.532395+00:00", "meta": {"OBJECT_NAME": "IRIDIUM 33 DEB", "OBJECT_ID": "1997-051GH", "EPOCH": "2025-12-26T16:26:49.984800", "MEAN_MOTION": 14.25962973, "ECCENTRICITY": 0.0188844, "INCLINATION": 86.4728, "RA_OF_ASC_NODE": 328.991, "ARG_OF_PERICENTER": 192.8428, "MEAN_ANOMALY": 343.7311, "EPHEMERIS_TYPE": 0, "CLASSIFICATION_TYPE": "U", "NORAD_CAT_ID": 34492, "ELEMENT_SET_NO": 999, "REV_AT_EPOCH": 85257, "BSTAR": 0.0027705, "MEAN_MOTION_DOT": 7.99e-05, "MEAN_MOTION_DDOT": 0}, "tle": {"line1": "1 34492U 97051GH  25360.68530075  .00007990  00000+0  27705-2 0  9991", "line2": "2 34492  86.4728 328.9910 0188844 192.8428 343.7311 14.25962973852575"}}, "geometry": {"type": "Point", "coordinates": [142.61983927831199, 60.17801418148766]}}, {"type": "Feature", "properties": {"norad_id": 34497, "name": "IRIDIUM 33 DEB", "group": "iridium-33-debris", "lat": 83.33393566919894, "lon": 80.09637989955247, "alt_km": 842.061540309488, "timestamp": "2025-12-27T03:58:44.532405+00:00", "meta": {"OBJECT_NAME": "IRIDIUM 33 DEB", "OBJECT_ID": "1997-051GN", "EPOCH": "2025-12-22T21:33:03.136608", "MEAN_MOTION": 14.27482363, "ECCENTRICITY": 0.00780484, "INCLINATION": 86.2769, "RA_OF_ASC_NODE": 48.0617, "ARG_OF_PERICENTER": 306.2683, "MEAN_ANOMALY": 179.2919, "EPHEMERIS_TYPE": 0, "CLASSIFICATION_TYPE": "U", "NORAD_CAT_ID": 34497, "ELEMENT_SET_NO": 999, "REV_AT_EPOCH": 87028, "BSTAR": 0.00056228088, "MEAN_MOTION_DOT": 1.443e-05, "MEAN_MOTION_DDOT": 0}, "tle": {"line1": "1 34497U 97051GN  25356.89795297  .00001443  00000+0  56228-3 0  9993", "line2": "2 34497  86.2769  48.0617 0078048 306.2683 179.2919 14.27482363870281"}}, "geometry": {"type": "Point", "coordinates": [80.09637989955247, 83.33393566919894]}}, {"type": "Feature", "properties": {"norad_id": 34508, "name": "IRIDIUM 33 DEB", "group": "iridium-33-debris", "lat": 85.640194260374, "lon": -139.84977287777852, "alt_km": 716.4165234016209, "timestamp": "2025-12-27T03:58:44.532414+00:00", "meta": {"OBJECT_NAME": "IRIDIUM 33 DEB", "OBJECT_ID": "1997-051GZ", "EPOCH": "2025-12-26T19:12:17.154720", "MEAN_MOTION": 14.38532192, "ECCENTRICITY": 0.0066715, "INCLINATION": 86.3698, "RA_OF_ASC_NODE": 96.6821, "ARG_OF_PERICENTER": 127.9184, "MEAN_ANOMALY": 232.8072, "EPHEMERIS_TYPE": 0, "CLASSIFICATION_TYPE": "U", "NORAD_CAT_ID": 34508, "ELEMENT_SET_NO": 999, "REV_AT_EPOCH": 87511, "BSTAR": 0.0012425, "MEAN_MOTION_DOT": 3.917e-05, "MEAN_MOTION_DDOT": 0}, "tle": {"line1": "1 34508U 97051GZ  25360.80019855  .00003917  00000+0  12425-2 0  9999", "line2": "2 34508  86.3698  96.6821 0066715 127.9184 232.8072 14.38532192875115"}}, "geometry": {"type": "Point", "coordinates": [-139.84977287777852, 85.640194260374]}}, {"type": "Feature", "properties": {"norad_id": 34521, "name": "IRIDIUM 33 DEB", "group": "iridium-33-debris", "lat": 55.66742118384216, "lon": -161.12483628671362, "alt_km": 674.8321738708701, "timestamp": "2025-12-27T03:58:44.532424+00:00", "meta": {"OBJECT_NAME": "IRIDIUM 33 DEB", "OBJECT_ID": "1997-051HN", "EPOCH": "2025-12-26T12:38:41.834976", "MEAN_MOTION": 14.63480775, "ECCENTRICITY": 0.0003338, "INCLINATION": 86.379, "RA_OF_ASC_NODE": 24.4764, "ARG_OF_PERICENTER": 162.7334, "MEAN_ANOMALY": 197.3992, "EPHEMERIS_TYPE": 0, "CLASSIFICATION_TYPE": "U", "NORAD_CAT_ID": 34521, "ELEMENT_SET_NO": 999, "REV_AT_EPOCH": 88674, "BSTAR": 0.00091376, "MEAN_MOTION_DOT": 4.754e-05, "MEAN_MOTION_DDOT": 0}, "tle": {"line1": "1 34521U 97051HN  25360.52687309  .00004754  00000+0  91376-3 0  9991", "line2": "2 34521  86.3790  24.4764 0003338 162.7334 197.3992 14.63480775886748"}}, "geometry": {"type": "Point", "coordinates": [-161.12483628671362, 55.66742118384216]}}, {"type": "Feature", "properties": {"norad_id": 34525, "name": "IRIDIUM 33 DEB", "group": "iridium-33-debris", "lat": -40.11542547944908, "lon": 37.620878340832576, "alt_km": 756.2695225217512, "timestamp": "2025-12-27T03:58:44.532433+00:00", "meta": {"OBJECT_NAME": "IRIDIUM 33 DEB", "OBJECT_ID": "1997-051HS", "EPOCH": "2025-12-26T20:39:51.981120", "MEAN_MOTION": 14.42938398, "ECCENTRICITY": 0.0006131, "INCLINATION": 86.3717, "RA_OF_ASC_NODE": 40.8155, "ARG_OF_PERICENTER": 62.2892, "MEAN_ANOMALY": 115.4959, "EPHEMERIS_TYPE": 0, "CLASSIFICATION_TYPE": "U", "NORAD_CAT_ID": 34525, "ELEMENT_SET_NO": 999, "REV_AT_EPOCH": 88291, "BSTAR": 0.00035623, "MEAN_MOTION_DOT": 1.21e-05, "MEAN_MOTION_DDOT": 0}, "tle": {"line1": "1 34525U 97051HS  25360.86101830  .00001210  00000+0  35623-3 0  9999", "line2": "2 34525  86.3717  40.8155 0006131  62.2892 115.4959 14.42938398882919"}}, "geometry": {"type": "Point", "coordinates": [37.620878340832576, -40.11542547944908]}}, {"type": "Feature", "properties": {"norad_id": 34529, "name": "IRIDIUM 33 DEB", "group": "iridium-33-debris", "lat": 83.49089776377203, "lon": 175.37851064553504, "alt_km": 745.604782642562, "timestamp": "2025-12-27T03:58:44.532442+00:00", "meta": {"OBJECT_NAME": "IRIDIUM 33 DEB", "OBJECT_ID": "1997-051HW", "EPOCH": "2025-12-26T14:12:06.788736", "MEAN_MOTION": 14.40627159, "ECCENTRICITY": 0.0006309, "INCLINATION": 86.3628, "RA_OF_ASC_NODE": 29.5057, "ARG_OF_PERICENTER": 138.1705, "MEAN_ANOMALY": 221.9977, "EPHEMERIS_TYPE": 0, "CLASSIFICATION_TYPE": "U", "NORAD_CAT_ID": 34529, "ELEMENT_SET_NO": 999, "REV_AT_EPOCH": 88341, "BSTAR": 0.00013424, "MEAN_MOTION_DOT": 4.48e-06, "MEAN_MOTION_DDOT": 0}, "tle": {"line1": "1 34529U 97051HW  25360.59174524  .00000448  00000+0  13424-3 0  9990", "line2": "2 34529  86.3628  29.5057 0006309 138.1705 221.9977 14.40627159883419"}}, "geometry": {"type": "Point", "coordinates": [175.37851064553504, 83.49089776377203]}}]}